{"type": "FeatureCollection", "features": [ {"type": "Feature", "properties": {"norad_id": 34375, "name": "IRIDIUM 33 DEB", "group": "iridium-33-debris", "lat": 10.725349709788768, "lon": 6.2390167242317425, "alt_km": 760.9731716353963, "timestamp": "2025-12-02T06:27:53.396784+00:00", "meta": {"OBJECT_NAME": "IRIDIUM 33 DEB", "OBJECT_ID": "1997-051FT", "EPOCH": "2025-12-01T14:41:16.632384", "MEAN_MOTION": 14.17960715, "ECCENTRICITY": 0.01023163, "INCLINATION": 86.4333, "RA_OF_ASC_NODE": 187.1808, "ARG_OF_PERICENTER": 161.7951, "MEAN_ANOMALY": 253.5923, "EPHEMERIS_TYPE": 0, "CLASSIFICATION_TYPE": "U", "NORAD_CAT_ID": 34375, "ELEMENT_SET_NO": 999, "REV_AT_EPOCH": 86554, "BSTAR": 0.00043425894, "MEAN_MOTION_DOT": 9.54e-06, "MEAN_MOTION_DDOT": 0}, "tle": {"line1": "1 34375U 97051FT  25335.61199806  .00000954  00000+0  43426-3 0  9991", "line2": "2 34375  86.4333 187.1808 0102316 161.7951 253.5923 14.17960715865545"}}, "geometry": {"type": "Point", "coordinates": [6.2390167242317425, 10.725349709788768]}}, {"type": "Feature", "properties": {"norad_id": 34376, "name": "IRIDIUM 33 DEB", "group": "iridium-33-debris", "lat": -52.22430211971006, "lon": 6.456852303038236, "alt_km": 697.4633061100494, "timestamp": "2025-12-02T06:27:53.396794+00:00", "meta": {"OBJECT_NAME": "IRIDIUM 33 DEB", "OBJECT_ID": "1997-051FU", "EPOCH": "2025-12-01T12:38:21.899040", "MEAN_MOTION": 14.62308083, "ECCENTRICITY": 0.00258981, "INCLINATION": 86.3001, "RA_OF_ASC_NODE": 11.5798, "ARG_OF_PERICENTER": 205.1793, "MEAN_ANOMALY": 154.8158, "EPHEMERIS_TYPE": 0, "CLASSIFICATION_TYPE": "U", "NORAD_CAT_ID": 34376, "ELEMENT_SET_NO": 999, "REV_AT_EPOCH": 87843, "BSTAR": 0.0014583482, "MEAN_MOTION_DOT": 7.418e-05, "MEAN_MOTION_DDOT": 0}, "tle": {"line1": "1 34376U 97051FU  25335.52664235  .00007418  00000+0  14583-2 0  9998", "line2": "2 34376  86.3001  11.5798 0025898 205.1793 154.8158 14.62308083878430"}}, "geometry": {"type": "Point", "coordinates": [6.456852303038236, -52.22430211971006]}}, {"type": "Feature", "properties": {"norad_id": 34486, "name": "IRIDIUM 33 DEB", "group": "iridium-33-debris", "lat": 2.6451890138446683, "lon": 17.022114758138883, "alt_km": 592.1378867514013, "timestamp": "2025-12-02T06:27:53.396804+00:00", "meta": {"OBJECT_NAME": "IRIDIUM 33 DEB", "OBJECT_ID": "1997-051GB", "EPOCH": "2025-12-01T03:23:17.162304", "MEAN_MOTION": 14.94972115, "ECCENTRICITY": 0.0012576, "INCLINATION": 86.3953, "RA_OF_ASC_NODE": 17.3749, "ARG_OF_PERICENTER": 150.6995, "MEAN_ANOMALY": 264.2546, "EPHEMERIS_TYPE": 0, "CLASSIFICATION_TYPE": "U", "NORAD_CAT_ID": 34486, "ELEMENT_SET_NO": 999, "REV_AT_EPOCH": 88813, "BSTAR": 0.0022992351, "MEAN_MOTION_DOT": 0.00025238, "MEAN_MOTION_DDOT": 0}, "tle": {"line1": "1 34486U 97051GB  25335.14117086  .00025238  00000+0  22992-2 0  9998", "line2": "2 34486  86.3953  17.3749 0012576 150.6995 264.2546 14.94972115888138"}}, "geometry": {"type": "Point", "coordinates": [17.022114758138883, 2.6451890138446683]}}, {"type": "Feature", "properties": {"norad_id": 34487, "name": "IRIDIUM 33 DEB", "group": "iridium-33-debris", "lat": -3.927984548766743, "lon": -162.8636344180583, "alt_km": 730.5941280434308, "timestamp": "2025-12-02T06:27:53.396814+00:00", "meta": {"OBJECT_NAME": "IRIDIUM 33 DEB", "OBJECT_ID": "1997-051GC", "EPOCH": "2025-12-01T15:14:00.920832", "MEAN_MOTION": 14.43192153, "ECCENTRICITY": 0.00317068, "INCLINATION": 86.3445, "RA_OF_ASC_NODE": 17.1579, "ARG_OF_PERICENTER": 163.7221, "MEAN_ANOMALY": 324.8136, "EPHEMERIS_TYPE": 0, "CLASSIFICATION_TYPE": "U", "NORAD_CAT_ID": 34487, "ELEMENT_SET_NO": 999, "REV_AT_EPOCH": 88088, "BSTAR": 0.0002149908, "MEAN_MOTION_DOT": 7.47e-06, "MEAN_MOTION_DDOT": 0}, "tle": {"line1": "1 34487U 97051GC  25335.63473288  .00000747  00000+0  21499-3 0  9992", "line2": "2 34487  86.3445  17.1579 0031706 163.7221 324.8136 14.43192153880889"}}, "geometry": {"type": "Point", "coordinates": [-162.8636344180583, -3.927984548766743]}}, {"type": "Feature", "properties": {"norad_id": 34488, "name": "IRIDIUM 33 DEB", "group": "iridium-33-debris", "lat": -37.54052232491655, "lon": 133.81649959608058, "alt_km": 504.74010035143147, "timestamp": "2025-12-02T06:27:53.396824+00:00", "meta": {"OBJECT_NAME": "IRIDIUM 33 DEB", "OBJECT_ID": "1997-051GD", "EPOCH": "2025-12-01T09:03:02.520864", "MEAN_MOTION": 15.25513419, "ECCENTRICITY": 0.00159486, "INCLINATION": 86.3247, "RA_OF_ASC_NODE": 311.4245, "ARG_OF_PERICENTER": 69.089, "MEAN_ANOMALY": 291.2062, "EPHEMERIS_TYPE": 0, "CLASSIFICATION_TYPE": "U", "NORAD_CAT_ID": 34488, "ELEMENT_SET_NO": 999, "REV_AT_EPOCH": 89066, "BSTAR": 0.005113685, "MEAN_MOTION_DOT": 0.00132074, "MEAN_MOTION_DDOT": 0}, "tle": {"line1": "1 34488U 97051GD  25335.37711251  .00132074  00000+0  51137-2 0  9999", "line2": "2 34488  86.3247 311.4245 0015948  69.0890 291.2062 15.25513419890665"}}, "geometry": {"type": "Point", "coordinates": [133.81649959608058, -37.54052232491655]}}, {"type": "Feature", "properties": {"norad_id": 34492, "name": "IRIDIUM 33 DEB", "group": "iridium-33-debris", "lat": -38.27690533515289, "lon": 161.65365660493288, "alt_km": 731.8911782496198, "timestamp": "2025-12-02T06:27:53.396834+00:00", "meta": {"OBJECT_NAME": "IRIDIUM 33 DEB", "OBJECT_ID": "1997-051GH", "EPOCH": "2025-12-01T11:37:20.497728", "MEAN_MOTION": 14.25192114, "ECCENTRICITY": 0.01904541, "INCLINATION": 86.4698, "RA_OF_ASC_NODE": 339.1786, "ARG_OF_PERICENTER": 274.674, "MEAN_ANOMALY": 239.6935, "EPHEMERIS_TYPE": 0, "CLASSIFICATION_TYPE": "U", "NORAD_CAT_ID": 34492, "ELEMENT_SET_NO": 999, "REV_AT_EPOCH": 84898, "BSTAR": 0.0079818839, "MEAN_MOTION_DOT": 0.00022727, "MEAN_MOTION_DDOT": 0}, "tle": {"line1": "1 34492U 97051GH  25335.48426502  .00022727  00000+0  79819-2 0  9998", "line2": "2 34492  86.4698 339.1786 0190454 274.6740 239.6935 14.25192114848989"}}, "geometry": {"type": "Point", "coordinates": [161.65365660493288, -38.27690533515289]}}, {"type": "Feature", "properties": {"norad_id": 34497, "name": "IRIDIUM 33 DEB", "group": "iridium-33-debris", "lat": 25.607715744568317, "lon": 58.6613329237728, "alt_km": 743.4463180249741, "timestamp": "2025-12-02T06:27:53.396844+00:00", "meta": {"OBJECT_NAME": "IRIDIUM 33 DEB", "OBJECT_ID": "1997-051GN", "EPOCH": "2025-12-01T05:14:48.727392", "MEAN_MOTION": 14.27398963, "ECCENTRICITY": 0.0080081, "INCLINATION": 86.2784, "RA_OF_ASC_NODE": 57.3223, "ARG_OF_PERICENTER": 16.9295, "MEAN_ANOMALY": 12.6117, "EPHEMERIS_TYPE": 0, "CLASSIFICATION_TYPE": "U", "NORAD_CAT_ID": 34497, "ELEMENT_SET_NO": 999, "REV_AT_EPOCH": 86719, "BSTAR": 0.00069242, "MEAN_MOTION_DOT": 1.774e-05, "MEAN_MOTION_DDOT": 0}, "tle": {"line1": "1 34497U 97051GN  25335.21861953  .00001774  00000+0  69242-3 0  9996", "line2": "2 34497  86.2784  57.3223 0080081  16.9295  12.6117 14.27398963867196"}}, "geometry": {"type": "Point", "coordinates": [58.6613329237728, 25.607715744568317]}}, {"type": "Feature", "properties": {"norad_id": 34508, "name": "IRIDIUM 33 DEB", "group": "iridium-33-debris", "lat": 47.882533266917996, "lon": -76.94657409736126, "alt_km": 747.7730414212137, "timestamp": "2025-12-02T06:27:53.396854+00:00", "meta": {"OBJECT_NAME": "IRIDIUM 33 DEB", "OBJECT_ID": "1997-051GZ", "EPOCH": "2025-12-01T19:49:48.096768", "MEAN_MOTION": 14.38250778, "ECCENTRICITY": 0.006538, "INCLINATION": 86.3693, "RA_OF_ASC_NODE": 107.2683, "ARG_OF_PERICENTER": 208.4513, "MEAN_ANOMALY": 151.3111, "EPHEMERIS_TYPE": 0, "CLASSIFICATION_TYPE": "U", "NORAD_CAT_ID": 34508, "ELEMENT_SET_NO": 999, "REV_AT_EPOCH": 87152, "BSTAR": 0.0017383, "MEAN_MOTION_DOT": 5.435e-05, "MEAN_MOTION_DDOT": 0}, "tle": {"line1": "1 34508U 97051GZ  25335.82625112  .00005435  00000+0  17383-2 0  9997", "line2": "2 34508  86.3693 107.2683 0065380 208.4513 151.3111 14.38250778871520"}}, "geometry": {"type": "Point", "coordinates": [-76.94657409736126, 47.882533266917996]}}, {"type": "Feature", "properties": {"norad_id": 34521, "name": "IRIDIUM 33 DEB", "group": "iridium-33-debris", "lat": 86.03482845652925, "lon": 149.2393323120412, "alt_km": 676.09506651839, "timestamp": "2025-12-02T06:27:53.396864+00:00", "meta": {"OBJECT_NAME": "IRIDIUM 33 DEB", "OBJECT_ID": "1997-051HN", "EPOCH": "2025-12-01T15:16:33.490272", "MEAN_MOTION": 14.63200196, "ECCENTRICITY": 0.00012484, "INCLINATION": 86.3814, "RA_OF_ASC_NODE": 35.4349, "ARG_OF_PERICENTER": 308.361, "MEAN_ANOMALY": 51.749, "EPHEMERIS_TYPE": 0, "CLASSIFICATION_TYPE": "U", "NORAD_CAT_ID": 34521, "ELEMENT_SET_NO": 999, "REV_AT_EPOCH": 88310, "BSTAR": 0.00096215239, "MEAN_MOTION_DOT": 4.973e-05, "MEAN_MOTION_DDOT": 0}, "tle": {"line1": "1 34521U 97051HN  25335.63649873  .00004973  00000+0  96215-3 0  9999", "line2": "2 34521  86.3814  35.4349 0001248 308.3610  51.7490 14.63200196883109"}}, "geometry": {"type": "Point", "coordinates": [149.2393323120412, 86.03482845652925]}}, {"type": "Feature", "properties": {"norad_id": 34525, "name": "IRIDIUM 33 DEB", "group": "iridium-33-debris", "lat": -41.308370736227985, "lon": 48.11737785253189, "alt_km": 760.0025863915198, "timestamp": "2025-12-02T06:27:53.396875+00:00", "meta": {"OBJECT_NAME": "IRIDIUM 33 DEB", "OBJECT_ID": "1997-051HS", "EPOCH": "2025-12-01T16:16:08.621184", "MEAN_MOTION": 14.42858751, "ECCENTRICITY": 0.0006393, "INCLINATION": 86.3737, "RA_OF_ASC_NODE": 51.5644, "ARG_OF_PERICENTER": 120.5701, "MEAN_ANOMALY": 7.7229, "EPHEMERIS_TYPE": 0, "CLASSIFICATION_TYPE": "U", "NORAD_CAT_ID": 34525, "ELEMENT_SET_NO": 999, "REV_AT_EPOCH": 87928, "BSTAR": 0.00042362, "MEAN_MOTION_DOT": 1.433e-05, "MEAN_MOTION_DDOT": 0}, "tle": {"line1": "1 34525U 97051HS  25335.67787756  .00001433  00000+0  42362-3 0  9992", "line2": "2 34525  86.3737  51.5644 0006393 120.5701   7.7229 14.42858751879283"}}, "geometry": {"type": "Point", "coordinates": [48.11737785253189, -41.308370736227985]}}]}